XINGWANG2_L_00008005-01
1 10120U 25445OL  26075.69964120  .00000000  00000+0  00000-0 0  9990
2 10120  84.0000  90.0000 0000000   0.0000  12.0000 14.92546055    12
XINGWANG2_L_00008005-02
1 10121U 22469VP  26075.69964120  .00000000  00000+0  00000-0 0  9994
2 10121  84.0000  90.0000 0000000   0.0000  24.0000 14.92546055    16
XINGWANG2_L_00008005-03
1 10122U 25836AZ  26075.69964120  .00000000  00000+0  00000-0 0  9996
2 10122  84.0000  90.0000 0000000   0.0000  36.0000 14.92546055    10
XINGWANG2_L_00008005-04
1 10123U 26657FJ  26075.69964120  .00000000  00000+0  00000-0 0  9999
2 10123  84.0000  90.0000 0000000   0.0000  48.0000 14.92546055    14
XINGWANG2_L_00008005-05
1 10124U 22874UE  26075.69964120  .00000000  00000+0  00000-0 0  9997
2 10124  84.0000  90.0000 0000000   0.0000  60.0000 14.92546055    19
XINGWANG2_L_00008005-06
1 10125U 24577O   26075.69964120  .00000000  00000+0  00000-0 0  9990
2 10125  84.0000  90.0000 0000000   0.0000  72.0000 14.92546055    13
XINGWANG2_L_00008005-07
1 10126U 25221JM  26075.69964120  .00000000  00000+0  00000-0 0  9998
2 10126  84.0000  90.0000 0000000   0.0000  84.0000 14.92546055    17
XINGWANG2_L_00008005-08
1 10127U 25284MD  26075.69964120  .00000000  00000+0  00000-0 0  9998
2 10127  84.0000  90.0000 0000000   0.0000  96.0000 14.92546055    11
XINGWANG2_L_00008005-09
1 10128U 22451HT  26075.69964120  .00000000  00000+0  00000-0 0  9992
2 10128  84.0000  90.0000 0000000   0.0000 108.0000 14.92546055    16
XINGWANG2_L_00008005-10
1 10129U 25161OX  26075.69964120  .00000000  00000+0  00000-0 0  9994
2 10129  84.0000  90.0000 0000000   0.0000 120.0000 14.92546055    11
XINGWANG2_L_00008005-11
1 10130U 26520AT  26075.69964120  .00000000  00000+0  00000-0 0  9996
2 10130  84.0000  90.0000 0000000   0.0000 132.0000 14.92546055    16
XINGWANG2_L_00008005-12
1 10131U 25949HM  26075.69964120  .00000000  00000+0  00000-0 0  9991
2 10131  84.0000  90.0000 0000000   0.0000 144.0000 14.92546055    10
XINGWANG2_L_00008005-13
1 10132U 23829VU  26075.69964120  .00000000  00000+0  00000-0 0  9997
2 10132  84.0000  90.0000 0000000   0.0000 156.0000 14.92546055    14
XINGWANG2_L_00008005-14
1 10133U 24093KD  26075.69964120  .00000000  00000+0  00000-0 0  9992
2 10133  84.0000  90.0000 0000000   0.0000 168.0000 14.92546055    18
XINGWANG2_L_00008005-15
1 10134U 22671HE  26075.69964120  .00000000  00000+0  00000-0 0  9993
2 10134  84.0000  90.0000 0000000   0.0000 180.0000 14.92546055    13
XINGWANG2_L_00008005-16
1 10135U 25601HM  26075.69964120  .00000000  00000+0  00000-0 0  9990
2 10135  84.0000  90.0000 0000000   0.0000 192.0000 14.92546055    17
XINGWANG2_L_00008005-17
1 10136U 26534YI  26075.69964120  .00000000  00000+0  00000-0 0  9997
2 10136  84.0000  90.0000 0000000   0.0000 204.0000 14.92546055    12
XINGWANG2_L_00008005-18
1 10137U 23657OB  26075.69964120  .00000000  00000+0  00000-0 0  9991
2 10137  84.0000  90.0000 0000000   0.0000 216.0000 14.92546055    16
XINGWANG2_L_00008005-19
1 10138U 25033VO  26075.69964120  .00000000  00000+0  00000-0 0  9992
2 10138  84.0000  90.0000 0000000   0.0000 228.0000 14.92546055    10
XINGWANG2_L_00008005-20
1 10139U 22905XD  26075.69964120  .00000000  00000+0  00000-0 0  9998
2 10139  84.0000  90.0000 0000000   0.0000 240.0000 14.92546055    15
XINGWANG2_L_00008005-21
1 10140U 22827LJ  26075.69964120  .00000000  00000+0  00000-0 0  9993
2 10140  84.0000  90.0000 0000000   0.0000 252.0000 14.92546055    10
XINGWANG2_L_00008005-22
1 10141U 22329LW  26075.69964120  .00000000  00000+0  00000-0 0  9991
2 10141  84.0000  90.0000 0000000   0.0000 264.0000 14.92546055    14
XINGWANG2_L_00008005-23
1 10142U 25064KT  26075.69964120  .00000000  00000+0  00000-0 0  9991
2 10142  84.0000  90.0000 0000000   0.0000 276.0000 14.92546055    18
XINGWANG2_L_00008005-24
1 10143U 25356AS  26075.69964120  .00000000  00000+0  00000-0 0  9996
2 10143  84.0000  90.0000 0000000   0.0000 288.0000 14.92546055    12
XINGWANG2_L_00008005-25
1 10144U 25122L   26075.69964120  .00000000  00000+0  00000-0 0  9998
2 10144  84.0000  90.0000 0000000   0.0000 300.0000 14.92546055    18
XINGWANG2_L_00008005-26
1 10145U 23251GB  26075.69964120  .00000000  00000+0  00000-0 0  9990
2 10145  84.0000  90.0000 0000000   0.0000 312.0000 14.92546055    12
XINGWANG2_L_00008005-27
1 10146U 24754UV  26075.69964120  .00000000  00000+0  00000-0 0  9990
2 10146  84.0000  90.0000 0000000   0.0000 324.0000 14.92546055    16
XINGWANG2_L_00008005-28
1 10147U 22366ZV  26075.69964120  .00000000  00000+0  00000-0 0  9998
2 10147  84.0000  90.0000 0000000   0.0000 336.0000 14.92546055    10
XINGWANG2_L_00008005-29
1 10148U 22314VE  26075.69964120  .00000000  00000+0  00000-0 0  9992
2 10148  84.0000  90.0000 0000000   0.0000 348.0000 14.92546055    14
XINGWANG2_L_00008005-30
1 10149U 24476AO  26075.69964120  .00000000  00000+0  00000-0 0  9994
2 10149  84.0000  90.0000 0000000   0.0000   0.0000 14.92546055    10
XINGWANG2_L_00008006-01
1 10150U 22701BW  26075.69964120  .00000000  00000+0  00000-0 0  9995
2 10150  84.0000 112.5000 0000000   0.0000  15.0000 14.92546055    18
XINGWANG2_L_00008006-02
1 10151U 24838HI  26075.69964120  .00000000  00000+0  00000-0 0  9999
2 10151  84.0000 112.5000 0000000   0.0000  27.0000 14.92546055    12
XINGWANG2_L_00008006-03
1 10152U 23098IF  26075.69964120  .00000000  00000+0  00000-0 0  9997
2 10152  84.0000 112.5000 0000000   0.0000  39.0000 14.92546055    16
XINGWANG2_L_00008006-04
1 10153U 26982KU  26075.69964120  .00000000  00000+0  00000-0 0  9993
2 10153  84.0000 112.5000 0000000   0.0000  51.0000 14.92546055    11
XINGWANG2_L_00008006-05
1 10154U 23428GC  26075.69964120  .00000000  00000+0  00000-0 0  9996
2 10154  84.0000 112.5000 0000000   0.0000  63.0000 14.92546055    15
XINGWANG2_L_00008006-06
1 10155U 22629EJ  26075.69964120  .00000000  00000+0  00000-0 0  9999
2 10155  84.0000 112.5000 0000000   0.0000  75.0000 14.92546055    19
XINGWANG2_L_00008006-07
1 10156U 25483HK  26075.69964120  .00000000  00000+0  00000-0 0  9991
2 10156  84.0000 112.5000 0000000   0.0000  87.0000 14.92546055    13
XINGWANG2_L_00008006-08
1 10157U 24755WK  26075.69964120  .00000000  00000+0  00000-0 0  9993
2 10157  84.0000 112.5000 0000000   0.0000  99.0000 14.92546055    17
XINGWANG2_L_00008006-09
1 10158U 26174KE  26075.69964120  .00000000  00000+0  00000-0 0  9991
2 10158  84.0000 112.5000 0000000   0.0000 111.0000 14.92546055    13
XINGWANG2_L_00008006-10
1 10159U 22631JW  26075.69964120  .00000000  00000+0  00000-0 0  9996
2 10159  84.0000 112.5000 0000000   0.0000 123.0000 14.92546055    17
XINGWANG2_L_00008006-11
1 10160U 23501WV  26075.69964120  .00000000  00000+0  00000-0 0  9995
2 10160  84.0000 112.5000 0000000   0.0000 135.0000 14.92546055    12
XINGWANG2_L_00008006-12
1 10161U 26439XQ  26075.69964120  .00000000  00000+0  00000-0 0  9999
2 10161  84.0000 112.5000 0000000   0.0000 147.0000 14.92546055    16
XINGWANG2_L_00008006-13
1 10162U 23599ED  26075.69964120  .00000000  00000+0  00000-0 0  9994
2 10162  84.0000 112.5000 0000000   0.0000 159.0000 14.92546055    10
XINGWANG2_L_00008006-14
1 10163U 23680GV  26075.69964120  .00000000  00000+0  00000-0 0  9996
2 10163  84.0000 112.5000 0000000   0.0000 171.0000 14.92546055    15
XINGWANG2_L_00008006-15
1 10164U 26337HH  26075.69964120  .00000000  00000+0  00000-0 0  9999
2 10164  84.0000 112.5000 0000000   0.0000 183.0000 14.92546055    19
XINGWANG2_L_00008006-16
1 10165U 25717IU  26075.69964120  .00000000  00000+0  00000-0 0  9991
2 10165  84.0000 112.5000 0000000   0.0000 195.0000 14.92546055    13
XINGWANG2_L_00008006-17
1 10166U 25552HS  26075.69964120  .00000000  00000+0  00000-0 0  9999
2 10166  84.0000 112.5000 0000000   0.0000 207.0000 14.92546055    18
XINGWANG2_L_00008006-18
1 10167U 25690AP  26075.69964120  .00000000  00000+0  00000-0 0  9993
2 10167  84.0000 112.5000 0000000   0.0000 219.0000 14.92546055    12
XINGWANG2_L_00008006-19
1 10168U 25826RL  26075.69964120  .00000000  00000+0  00000-0 0  9995
2 10168  84.0000 112.5000 0000000   0.0000 231.0000 14.92546055    17
XINGWANG2_L_00008006-20
1 10169U 25513QI  26075.69964120  .00000000  00000+0  00000-0 0  9999
2 10169  84.0000 112.5000 0000000   0.0000 243.0000 14.92546055    11
XINGWANG2_L_00008006-21
1 10170U 23445VJ  26075.69964120  .00000000  00000+0  00000-0 0  9993
2 10170  84.0000 112.5000 0000000   0.0000 255.0000 14.92546055    16
XINGWANG2_L_00008006-22
1 10171U 26793NP  26075.69964120  .00000000  00000+0  00000-0 0  9993
2 10171  84.0000 112.5000 0000000   0.0000 267.0000 14.92546055    10
XINGWANG2_L_00008006-23
1 10172U 26585XV  26075.69964120  .00000000  00000+0  00000-0 0  9993
2 10172  84.0000 112.5000 0000000   0.0000 279.0000 14.92546055    14
XINGWANG2_L_00008006-24
1 10173U 23744LW  26075.69964120  .00000000  00000+0  00000-0 0  9998
2 10173  84.0000 112.5000 0000000   0.0000 291.0000 14.92546055    19
XINGWANG2_L_00008006-25
1 10174U 24109HH  26075.69964120  .00000000  00000+0  00000-0 0  9995
2 10174  84.0000 112.5000 0000000   0.0000 303.0000 14.92546055    14
XINGWANG2_L_00008006-26
1 10175U 26379IH  26075.69964120  .00000000  00000+0  00000-0 0  9997
2 10175  84.0000 112.5000 0000000   0.0000 315.0000 14.92546055    18
XINGWANG2_L_00008006-27
1 10176U 22719QG  26075.69964120  .00000000  00000+0  00000-0 0  9992
2 10176  84.0000 112.5000 0000000   0.0000 327.0000 14.92546055    12
XINGWANG2_L_00008006-28
1 10177U 26997NM  26075.69964120  .00000000  00000+0  00000-0 0  9995
2 10177  84.0000 112.5000 0000000   0.0000 339.0000 14.92546055    16
XINGWANG2_L_00008006-29
1 10178U 26522KO  26075.69964120  .00000000  00000+0  00000-0 0  9990
2 10178  84.0000 112.5000 0000000   0.0000 351.0000 14.92546055    11
XINGWANG2_L_00008006-30
1 10179U 22015AB  26075.69964120  .00000000  00000+0  00000-0 0  9994
2 10179  84.0000 112.5000 0000000   0.0000   3.0000 14.92546055    16
